OBJECT_NAME,OBJECT_ID,EPOCH,MEAN_MOTION,ECCENTRICITY,INCLINATION,RA_OF_ASC_NODE,ARG_OF_PERICENTER,MEAN_ANOMALY,EPHEMERIS_TYPE,CLASSIFICATION_TYPE,NORAD_CAT_ID,ELEMENT_SET_NO,REV_AT_EPOCH,BSTAR,MEAN_MOTION_DOT,MEAN_MOTION_DDOT
STARLINK-30972,2024-002S,2024-01-20T18:38:37.749120,15.40737043,.0001354,53.1587,163.0365,43.3168,316.7944,0,U,58721,999,394,-.25167E-1,-.955552E-2,0
STARLINK-31040,2024-002T,2024-01-20T22:00:00.999936,15.40786797,.0001204,53.1585,162.3660,57.4042,4.9168,0,U,58722,999,396,-.58712E-1,-.2192415E-1,0
STARLINK-31033,2024-002U,2024-01-20T22:00:00.999936,15.28560156,.0000627,53.1589,162.1364,85.6536,91.8778,0,U,58723,999,384,-.32097E-1,-.834352E-2,0
STARLINK-30893,2024-002V,2024-01-20T14:00:01.000224,15.37323220,.0001572,53.1599,163.8495,21.1757,37.6625,0,U,58724,999,383,-.67203E-1,-.2233496E-1,0
STARLINK-30856,2024-002W,2024-01-20T14:04:04.814976,15.43870536,.0001265,53.1585,163.9863,83.2491,276.8660,0,U,58725,999,394,.16298E-2,.75445E-3,0
STARLINK-31155,2024-005A,2024-01-20T14:00:01.000224,15.74883881,.0001712,43.0038,145.2763,275.8429,133.1203,0,U,58728,999,311,-.64925E-2,-.892148E-2,0
STARLINK-31115,2024-005B,2024-01-20T20:00:01.000224,15.74186602,.0002191,43.0035,143.7577,273.4749,115.3800,0,U,58729,999,315,-.35955E-2,-.502201E-2,0
STARLINK-31150,2024-005C,2024-01-20T20:00:01.000224,15.74026255,.0001719,43.0031,143.7550,271.3004,118.5411,0,U,58730,999,314,-.25402E-2,-.358408E-2,0
STARLINK-31204,2024-005D,2024-01-20T20:00:01.000224,15.73885976,.0001905,43.0030,143.7526,283.6802,107.1215,0,U,58731,999,314,-.74355E-3,-.107728E-2,0
STARLINK-31180,2024-005E,2024-01-20T20:00:01.000224,15.73815341,.0002408,43.0029,143.7503,265.5831,126.1349,0,U,58732,999,315,.31737E-4,.4155E-4,0
STARLINK-31164,2024-005F,2024-01-20T20:00:01.000224,15.73775831,.0002165,43.0029,143.7478,279.1534,113.4611,0,U,58733,999,314,.50263E-3,.73261E-3,0
STARLINK-31152,2024-005G,2024-01-20T20:00:01.000224,15.73779013,.0001797,43.0027,143.7455,278.1879,115.3075,0,U,58734,999,314,.47864E-3,.69719E-3,0
STARLINK-31157,2024-005H,2024-01-20T20:00:01.000224,15.73723177,.0001627,43.0026,143.7431,293.0633,101.2997,0,U,58735,999,314,.12628E-2,.186869E-2,0
STARLINK-31076,2024-005J,2024-01-20T20:00:01.000224,15.73773441,.0002119,43.0026,143.7408,276.8856,118.3700,0,U,58736,999,320,.56049E-3,.81823E-3,0
STARLINK-31101,2024-005K,2024-01-20T20:00:01.000224,15.73783045,.0002256,43.0024,143.7360,271.2515,125.7586,0,U,58737,999,314,.48164E-3,.70178E-3,0
STARLINK-31108,2024-005L,2024-01-20T20:00:01.000224,15.73784009,.0002361,43.0026,143.7385,272.2170,123.9102,0,U,58738,999,315,.47612E-3,.69366E-3,0
STARLINK-31042,2024-005M,2024-01-20T14:00:01.000224,15.73765974,.0001782,43.0025,145.2477,270.1014,149.6389,0,U,58739,999,311,.46911E-3,.68271E-3,0
STARLINK-31159,2024-005N,2024-01-20T20:00:01.000224,15.73753001,.0001589,43.0020,143.7314,268.7041,130.0957,0,U,58740,999,324,.6325E-3,.92428E-3,0
STARLINK-31148,2024-005P,2024-01-20T14:00:01.000224,15.73802090,.000212,43.0022,145.2427,276.2538,145.2489,0,U,58741,999,311,-.19954E-4,-.3373E-4,0
STARLINK-31151,2024-005Q,2024-01-20T20:00:01.000224,15.73738015,.0001538,43.0020,143.7263,295.2991,105.3044,0,U,58742,999,324,.48994E-3,.71262E-3,0
STARLINK-31156,2024-005R,2024-01-20T20:00:01.000224,15.73684687,.0002395,43.0019,143.7238,253.9206,147.5979,0,U,58743,999,319,.90128E-3,.132152E-2,0
STARLINK-31167,2024-005S,2024-01-20T20:00:01.000224,15.73652952,.0002711,43.0017,143.7217,245.8845,156.5438,0,U,58744,999,319,.12815E-2,.189135E-2,0
STARLINK-31176,2024-005T,2024-01-20T20:00:01.000224,15.73702883,.0001498,43.0020,143.7196,273.7429,129.6002,0,U,58745,999,314,.31304E-3,.45151E-3,0
STARLINK-31181,2024-005U,2024-01-20T20:00:01.000224,15.76972871,.0001609,43.0037,143.3367,273.0402,282.9899,0,U,58746,999,319,-.87286E-2,-.1307677E-1,0
STARLINK-31183,2024-005V,2024-01-20T14:00:01.000224,15.73799001,.0001842,43.0018,145.2292,256.5626,170.2949,0,U,58747,999,321,-.51436E-3,-.74677E-3,0
STARLINK-31165,2024-005W,2024-01-20T14:00:01.000224,15.73875298,.0001607,43.0018,145.2270,262.3457,165.4443,0,U,58748,999,311,-.12904E-2,-.184832E-2,0
STARLINK-31160,2024-005X,2024-01-20T20:00:01.000224,15.81449483,.0001782,43.0039,143.1357,275.5560,0.4190,0,U,58749,999,314,-.54509E-2,-.996886E-2,0
STARLINK-31179,2024-005Y,2024-01-20T14:00:01.000224,15.73675733,.0001589,43.0017,145.2217,284.4255,145.1657,0,U,58750,999,311,.43492E-3,.62974E-3,0
VULCAN CENTAUR R/B,2024-006B,2024-01-08T07:34:39.000288,15.23529836,.0004,30.0000,29.8668,321.7000,177.4980,0,U,58752,999,0,0,.148E-5,0
EINSTEIN PROBE,2024-007A,2024-01-20T16:59:11.383296,14.93164106,.0011444,28.9975,132.8519,47.4742,312.6819,0,U,58753,999,171,.41168E-3,.4539E-4,0
