STARLINK-30972          
1 58721U 24002S   24020.77682580 -.00955552  00000+0 -25167-1 0  9996
2 58721  53.1587 163.0365 0001354  43.3168 316.7944 15.40737043  3940
STARLINK-31040          
1 58722U 24002T   24020.91667824 -.02192415  00000+0 -58712-1 0  9992
2 58722  53.1585 162.3660 0001204  57.4042   4.9168 15.40786797  3966
STARLINK-31033          
1 58723U 24002U   24020.91667824 -.00834352  00000+0 -32097-1 0  9992
2 58723  53.1589 162.1364 0000627  85.6536  91.8778 15.28560156  3843
STARLINK-30893          
1 58724U 24002V   24020.58334491 -.02233496  00000+0 -67203-1 0  9998
2 58724  53.1599 163.8495 0001572  21.1757  37.6625 15.37323220  3835
STARLINK-30856          
1 58725U 24002W   24020.58616684  .00075445  00000+0  16298-2 0  9999
2 58725  53.1585 163.9863 0001265  83.2491 276.8660 15.43870536  3946
STARLINK-31155          
1 58728U 24005A   24020.58334491 -.00892148  00000+0 -64925-2 0  9997
2 58728  43.0038 145.2763 0001712 275.8429 133.1203 15.74883881  3117
STARLINK-31115          
1 58729U 24005B   24020.83334491 -.00502201  00000+0 -35955-2 0  9995
2 58729  43.0035 143.7577 0002191 273.4749 115.3800 15.74186602  3158
STARLINK-31150          
1 58730U 24005C   24020.83334491 -.00358408  00000+0 -25402-2 0  9991
2 58730  43.0031 143.7550 0001719 271.3004 118.5411 15.74026255  3142
STARLINK-31204          
1 58731U 24005D   24020.83334491 -.00107728  00000+0 -74355-3 0  9991
2 58731  43.0030 143.7526 0001905 283.6802 107.1215 15.73885976  3142
STARLINK-31180          
1 58732U 24005E   24020.83334491  .00004155  00000+0  31737-4 0  9998
2 58732  43.0029 143.7503 0002408 265.5831 126.1349 15.73815341  3155
STARLINK-31164          
1 58733U 24005F   24020.83334491  .00073261  00000+0  50263-3 0  9997
2 58733  43.0029 143.7478 0002165 279.1534 113.4611 15.73775831  3147
STARLINK-31152          
1 58734U 24005G   24020.83334491  .00069719  00000+0  47864-3 0  9994
2 58734  43.0027 143.7455 0001797 278.1879 115.3075 15.73779013  3143
STARLINK-31157          
1 58735U 24005H   24020.83334491  .00186869  00000+0  12628-2 0  9990
2 58735  43.0026 143.7431 0001627 293.0633 101.2997 15.73723177  3140
STARLINK-31076          
1 58736U 24005J   24020.83334491  .00081823  00000+0  56049-3 0  9991
2 58736  43.0026 143.7408 0002119 276.8856 118.3700 15.73773441  3205
STARLINK-31101          
1 58737U 24005K   24020.83334491  .00070178  00000+0  48164-3 0  9992
2 58737  43.0024 143.7360 0002256 271.2515 125.7586 15.73783045  3142
STARLINK-31108          
1 58738U 24005L   24020.83334491  .00069366  00000+0  47612-3 0  9997
2 58738  43.0026 143.7385 0002361 272.2170 123.9102 15.73784009  3153
STARLINK-31042          
1 58739U 24005M   24020.58334491  .00068271  00000+0  46911-3 0  9995
2 58739  43.0025 145.2477 0001782 270.1014 149.6389 15.73765974  3110
STARLINK-31159          
1 58740U 24005N   24020.83334491  .00092428  00000+0  63250-3 0  9991
2 58740  43.0020 143.7314 0001589 268.7041 130.0957 15.73753001  3245
STARLINK-31148          
1 58741U 24005P   24020.58334491 -.00003373  00000+0 -19954-4 0  9990
2 58741  43.0022 145.2427 0002120 276.2538 145.2489 15.73802090  3114
STARLINK-31151          
1 58742U 24005Q   24020.83334491  .00071262  00000+0  48994-3 0  9994
2 58742  43.0020 143.7263 0001538 295.2991 105.3044 15.73738015  3243
STARLINK-31156          
1 58743U 24005R   24020.83334491  .00132152  00000+0  90128-3 0  9997
2 58743  43.0019 143.7238 0002395 253.9206 147.5979 15.73684687  3190
STARLINK-31167          
1 58744U 24005S   24020.83334491  .00189135  00000+0  12815-2 0  9997
2 58744  43.0017 143.7217 0002711 245.8845 156.5438 15.73652952  3197
STARLINK-31176          
1 58745U 24005T   24020.83334491  .00045151  00000+0  31304-3 0  9992
2 58745  43.0020 143.7196 0001498 273.7429 129.6002 15.73702883  3149
STARLINK-31181          
1 58746U 24005U   24020.83334491 -.01307677  00000+0 -87286-2 0  9999
2 58746  43.0037 143.3367 0001609 273.0402 282.9899 15.76972871  3193
STARLINK-31183          
1 58747U 24005V   24020.58334491 -.00074677  00000+0 -51436-3 0  9991
2 58747  43.0018 145.2292 0001842 256.5626 170.2949 15.73799001  3211
STARLINK-31165          
1 58748U 24005W   24020.58334491 -.00184832  00000+0 -12904-2 0  9993
2 58748  43.0018 145.2270 0001607 262.3457 165.4443 15.73875298  3111
STARLINK-31160          
1 58749U 24005X   24020.83334491 -.00996886  00000+0 -54509-2 0  9999
2 58749  43.0039 143.1357 0001782 275.5560   0.4190 15.81449483  3145
STARLINK-31179          
1 58750U 24005Y   24020.58334491  .00062974  00000+0  43492-3 0  9993
2 58750  43.0017 145.2217 0001589 284.4255 145.1657 15.73675733  3118
VULCAN CENTAUR R/B      
1 58752U 24006B   24008.31572917  .00000148  00000+0  00000+0 0  9999
2 58752  30.0000  29.8668 0004000 321.7000 177.4980 15.23529836    08
EINSTEIN PROBE          
1 58753U 24007A   24020.70777064  .00004539  00000+0  41168-3 0  9990
2 58753  28.9975 132.8519 0011444  47.4742 312.6819 14.93164106  1715
